QIANFAN-49              
1 62250U 24232P   25340.91508696  .00000186  00000+0  26931-3 0  9994
2 62250  89.0032  41.8233 0013736 204.1191 155.9319 13.50977406 67051
QIANFAN-50              
1 62251U 24232Q   25340.93976016  .00000186  00000+0  27026-3 0  9998
2 62251  89.0037  41.8286 0015349 206.2534 153.7841 13.50978908 67088
QIANFAN-51              
1 62252U 24232R   25340.92332044  .00000171  00000+0  24659-3 0  9998
2 62252  89.0032  41.8246 0012709 208.7881 151.2570 13.50977071 67070
QIANFAN-52              
1 62253U 24232S   25340.95211672  .00000186  00000+0  26890-3 0  9990
2 62253  89.0028  41.6955 0014971 201.8617 158.1897 13.50975283 67166
QIANFAN-53              
1 62254U 24232T   25340.93154070  .00000174  00000+0  25081-3 0  9995
2 62254  89.0035  41.8017 0013824 202.4567 157.5981 13.50977572 67129
QIANFAN-54              
1 62255U 24232U   25340.89865311  .00000173  00000+0  24989-3 0  9993
2 62255  89.0026  41.4838 0001155 183.4876 176.6267 13.50977709 98622
QIANFAN-55              
1 62785U 25016A   25340.92479269  .00000178  00000+0  25655-3 0  9995
2 62785  88.9777 103.8092 0017107  10.8000 349.3516 13.50985308 46401
QIANFAN-56              
1 62786U 25016B   25340.86710237  .00000174  00000+0  25015-3 0  9998
2 62786  88.9750 103.6532 0015840  13.8465 346.3117 13.50976453 46449
